[{"OBJECT_NAME":"ONEWEB-0288","OBJECT_ID":"2021-075D","EPOCH":"2025-09-19T21:49:59.625696","MEAN_MOTION":13.12443326,"ECCENTRICITY":0.00017985,"INCLINATION":87.8916,"RA_OF_ASC_NODE":44.3489,"ARG_OF_PERICENTER":100.2804,"MEAN_ANOMALY":259.8527,"EPHEMERIS_TYPE":0,"CLASSIFICATION_TYPE":"U","NORAD_CAT_ID":49078,"ELEMENT_SET_NO":999,"REV_AT_EPOCH":19973,"BSTAR":0.000149752,"MEAN_MOTION_DOT":6.7e-7,"MEAN_MOTION_DDOT":0},{"OBJECT_NAME":"ONEWEB-0289","OBJECT_ID":"2021-075E","EPOCH":"2025-09-19T22:45:50.232384","MEAN_MOTION":13.17648486,"ECCENTRICITY":0.00017547,"INCLINATION":87.9047,"RA_OF_ASC_NODE":59.637,"ARG_OF_PERICENTER":108.2478,"MEAN_ANOMALY":251.8845,"EPHEMERIS_TYPE":0,"CLASSIFICATION_TYPE":"U","NORAD_CAT_ID":49079,"ELEMENT_SET_NO":999,"REV_AT_EPOCH":19861,"BSTAR":2.9685807e-5,"MEAN_MOTION_DOT":2.4e-7,"MEAN_MOTION_DDOT":0},{"OBJECT_NAME":"ONEWEB-0290","OBJECT_ID":"2021-075F","EPOCH":"2025-09-19T22:07:09.229440","MEAN_MOTION":13.17647397,"ECCENTRICITY":0.00015147,"INCLINATION":87.9058,"RA_OF_ASC_NODE":59.5974,"ARG_OF_PERICENTER":114.8796,"MEAN_ANOMALY":245.2493,"EPHEMERIS_TYPE":0,"CLASSIFICATION_TYPE":"U","NORAD_CAT_ID":49080,"ELEMENT_SET_NO":999,"REV_AT_EPOCH":19802,"BSTAR":-0.00019518519,"MEAN_MOTION_DOT":-6.3e-7,"MEAN_MOTION_DDOT":0},{"OBJECT_NAME":"ONEWEB-0291","OBJECT_ID":"2021-075G","EPOCH":"2025-09-19T21:45:17.918496","MEAN_MOTION":13.17647891,"ECCENTRICITY":0.00020433,"INCLINATION":87.9061,"RA_OF_ASC_NODE":59.6054,"ARG_OF_PERICENTER":99.4444,"MEAN_ANOMALY":260.6919,"EPHEMERIS_TYPE":0,"CLASSIFICATION_TYPE":"U","NORAD_CAT_ID":49081,"ELEMENT_SET_NO":999,"REV_AT_EPOCH":19801,"BSTAR":-0.00013737577,"MEAN_MOTION_DOT":-4.0e-7,"MEAN_MOTION_DDOT":0},{"OBJECT_NAME":"ONEWEB-0293","OBJECT_ID":"2021-075H","EPOCH":"2025-09-19T22:21:43.972416","MEAN_MOTION":13.17647402,"ECCENTRICITY":0.00017069,"INCLINATION":87.9047,"RA_OF_ASC_NODE":59.6285,"ARG_OF_PERICENTER":98.2649,"MEAN_ANOMALY":261.8676,"EPHEMERIS_TYPE":0,"CLASSIFICATION_TYPE":"U","NORAD_CAT_ID":49082,"ELEMENT_SET_NO":999,"REV_AT_EPOCH":19804,"BSTAR":-7.5015607e-5,"MEAN_MOTION_DOT":-1.6e-7,"MEAN_MOTION_DDOT":0},{"OBJECT_NAME":"ONEWEB-0294","OBJECT_ID":"2021-075J","EPOCH":"2025-09-19T21:59:20.689152","MEAN_MOTION":13.12444446,"ECCENTRICITY":0.00017823,"INCLINATION":87.8916,"RA_OF_ASC_NODE":44.3481,"ARG_OF_PERICENTER":112.9095,"MEAN_ANOMALY":247.2221,"EPHEMERIS_TYPE":0,"CLASSIFICATION_TYPE":"U","NORAD_CAT_ID":49083,"ELEMENT_SET_NO":999,"REV_AT_EPOCH":19912,"BSTAR":0.00085001245,"MEAN_MOTION_DOT":3.19e-6,"MEAN_MOTION_DDOT":0},{"OBJECT_NAME":"ONEWEB-0295","OBJECT_ID":"2021-075K","EPOCH":"2025-09-19T22:20:31.577856","MEAN_MOTION":13.17648348,"ECCENTRICITY":0.00020815,"INCLINATION":87.9053,"RA_OF_ASC_NODE":59.6326,"ARG_OF_PERICENTER":97.0786,"MEAN_ANOMALY":263.0582,"EPHEMERIS_TYPE":0,"CLASSIFICATION_TYPE":"U","NORAD_CAT_ID":49084,"ELEMENT_SET_NO":999,"REV_AT_EPOCH":19800,"BSTAR":-2.0852956e-5,"MEAN_MOTION_DOT":5.0e-8,"MEAN_MOTION_DDOT":0},{"OBJECT_NAME":"ONEWEB-0296","OBJECT_ID":"2021-075L","EPOCH":"2025-09-20T03:00:38.228544","MEAN_MOTION":13.12440655,"ECCENTRICITY":0.00021254,"INCLINATION":87.8915,"RA_OF_ASC_NODE":44.3123,"ARG_OF_PERICENTER":106.4855,"MEAN_ANOMALY":253.6507,"EPHEMERIS_TYPE":0,"CLASSIFICATION_TYPE":"U","NORAD_CAT_ID":49085,"ELEMENT_SET_NO":999,"REV_AT_EPOCH":19915,"BSTAR":-0.0006291311,"MEAN_MOTION_DOT":-2.14e-6,"MEAN_MOTION_DDOT":0},{"OBJECT_NAME":"ONEWEB-0297","OBJECT_ID":"2021-075M","EPOCH":"2025-09-19T22:15:40.566240","MEAN_MOTION":13.12444011,"ECCENTRICITY":0.00017521,"INCLINATION":87.8905,"RA_OF_ASC_NODE":44.3887,"ARG_OF_PERICENTER":95.9028,"MEAN_ANOMALY":264.23,"EPHEMERIS_TYPE":0,"CLASSIFICATION_TYPE":"U","NORAD_CAT_ID":49086,"ELEMENT_SET_NO":999,"REV_AT_EPOCH":19973,"BSTAR":0.0011783452,"MEAN_MOTION_DOT":4.37e-6,"MEAN_MOTION_DDOT":0},{"OBJECT_NAME":"ONEWEB-0298","OBJECT_ID":"2021-075N","EPOCH":"2025-09-19T22:26:47.359968","MEAN_MOTION":13.17647271,"ECCENTRICITY":0.00017038,"INCLINATION":87.9056,"RA_OF_ASC_NODE":59.6259,"ARG_OF_PERICENTER":91.4701,"MEAN_ANOMALY":268.6626,"EPHEMERIS_TYPE":0,"CLASSIFICATION_TYPE":"U","NORAD_CAT_ID":49087,"ELEMENT_SET_NO":999,"REV_AT_EPOCH":19803,"BSTAR":-5.946044e-5,"MEAN_MOTION_DOT":-1.0e-7,"MEAN_MOTION_DDOT":0},{"OBJECT_NAME":"ONEWEB-0299","OBJECT_ID":"2021-075P","EPOCH":"2025-09-19T22:29:01.381056","MEAN_MOTION":13.1764696,"ECCENTRICITY":0.00019091,"INCLINATION":87.9062,"RA_OF_ASC_NODE":59.583,"ARG_OF_PERICENTER":90.6255,"MEAN_ANOMALY":269.5096,"EPHEMERIS_TYPE":0,"CLASSIFICATION_TYPE":"U","NORAD_CAT_ID":49088,"ELEMENT_SET_NO":999,"REV_AT_EPOCH":19801,"BSTAR":5.8876222e-5,"MEAN_MOTION_DOT":3.6e-7,"MEAN_MOTION_DDOT":0},{"OBJECT_NAME":"ONEWEB-0300","OBJECT_ID":"2021-075Q","EPOCH":"2025-09-19T22:04:00.931008","MEAN_MOTION":13.12443704,"ECCENTRICITY":0.00015744,"INCLINATION":87.8913,"RA_OF_ASC_NODE":44.3437,"ARG_OF_PERICENTER":85.0632,"MEAN_ANOMALY":275.0677,"EPHEMERIS_TYPE":0,"CLASSIFICATION_TYPE":"U","NORAD_CAT_ID":49089,"ELEMENT_SET_NO":999,"REV_AT_EPOCH":19975,"BSTAR":0.0010983455,"MEAN_MOTION_DOT":4.08e-6,"MEAN_MOTION_DDOT":0},{"OBJECT_NAME":"ONEWEB-0301","OBJECT_ID":"2021-075R","EPOCH":"2025-09-19T21:40:38.577792","MEAN_MOTION":13.12445028,"ECCENTRICITY":0.00015253,"INCLINATION":87.8912,"RA_OF_ASC_NODE":44.3511,"ARG_OF_PERICENTER":82.3981,"MEAN_ANOMALY":277.7321,"EPHEMERIS_TYPE":0,"CLASSIFICATION_TYPE":"U","NORAD_CAT_ID":49090,"ELEMENT_SET_NO":999,"REV_AT_EPOCH":19911,"BSTAR":-0.00014677723,"MEAN_MOTION_DOT":-4.0e-7,"MEAN_MOTION_DDOT":0},{"OBJECT_NAME":"ONEWEB-0302","OBJECT_ID":"2021-075S","EPOCH":"2025-09-20T02:51:16.916256","MEAN_MOTION":13.12442502,"ECCENTRICITY":0.00018525,"INCLINATION":87.8915,"RA_OF_ASC_NODE":44.3147,"ARG_OF_PERICENTER":107.704,"MEAN_ANOMALY":252.4291,"EPHEMERIS_TYPE":0,"CLASSIFICATION_TYPE":"U","NORAD_CAT_ID":49091,"ELEMENT_SET_NO":999,"REV_AT_EPOCH":19912,"BSTAR":-0.0014188345,"MEAN_MOTION_DOT":-4.98e-6,"MEAN_MOTION_DDOT":0},{"OBJECT_NAME":"ONEWEB-0304","OBJECT_ID":"2021-075T","EPOCH":"2025-09-19T21:52:34.941792","MEAN_MOTION":13.17647882,"ECCENTRICITY":0.00018662,"INCLINATION":87.906,"RA_OF_ASC_NODE":59.6191,"ARG_OF_PERICENTER":93.9956,"MEAN_ANOMALY":266.1389,"EPHEMERIS_TYPE":0,"CLASSIFICATION_TYPE":"U","NORAD_CAT_ID":49092,"ELEMENT_SET_NO":999,"REV_AT_EPOCH":19798,"BSTAR":-0.00012273301,"MEAN_MOTION_DOT":-3.5e-7,"MEAN_MOTION_DDOT":0},{"OBJECT_NAME":"ONEWEB-0305","OBJECT_ID":"2021-075U","EPOCH":"2025-09-19T21:42:52.032960","MEAN_MOTION":13.17647836,"ECCENTRICITY":0.00021465,"INCLINATION":87.9061,"RA_OF_ASC_NODE":59.5969,"ARG_OF_PERICENTER":93.1593,"MEAN_ANOMALY":266.9785,"EPHEMERIS_TYPE":0,"CLASSIFICATION_TYPE":"U","NORAD_CAT_ID":49093,"ELEMENT_SET_NO":999,"REV_AT_EPOCH":19801,"BSTAR":-2.3538837e-5,"MEAN_MOTION_DOT":4.0e-8,"MEAN_MOTION_DDOT":0},{"OBJECT_NAME":"ONEWEB-0308","OBJECT_ID":"2021-075V","EPOCH":"2025-09-20T02:41:57.064992","MEAN_MOTION":13.12442479,"ECCENTRICITY":0.00016235,"INCLINATION":87.8915,"RA_OF_ASC_NODE":44.3077,"ARG_OF_PERICENTER":96.7181,"MEAN_ANOMALY":263.4132,"EPHEMERIS_TYPE":0,"CLASSIFICATION_TYPE":"U","NORAD_CAT_ID":49094,"ELEMENT_SET_NO":999,"REV_AT_EPOCH":19913,"BSTAR":-0.0013421228,"MEAN_MOTION_DOT":-4.7e-6,"MEAN_MOTION_DDOT":0},{"OBJECT_NAME":"ONEWEB-0309","OBJECT_ID":"2021-075W","EPOCH":"2025-09-19T21:47:42.877824","MEAN_MOTION":13.17649438,"ECCENTRICITY":0.00018154,"INCLINATION":87.9059,"RA_OF_ASC_NODE":59.6133,"ARG_OF_PERICENTER":107.8671,"MEAN_ANOMALY":252.2659,"EPHEMERIS_TYPE":0,"CLASSIFICATION_TYPE":"U","NORAD_CAT_ID":49095,"ELEMENT_SET_NO":999,"REV_AT_EPOCH":19798,"BSTAR":8.23003e-7,"MEAN_MOTION_DOT":1.3e-7,"MEAN_MOTION_DDOT":0},{"OBJECT_NAME":"ONEWEB-0310","OBJECT_ID":"2021-075X","EPOCH":"2025-09-19T21:33:37.578240","MEAN_MOTION":13.12444936,"ECCENTRICITY":0.00016936,"INCLINATION":87.8908,"RA_OF_ASC_NODE":44.3944,"ARG_OF_PERICENTER":100.5198,"MEAN_ANOMALY":259.6121,"EPHEMERIS_TYPE":0,"CLASSIFICATION_TYPE":"U","NORAD_CAT_ID":49096,"ELEMENT_SET_NO":999,"REV_AT_EPOCH":19973,"BSTAR":-0.00046746387,"MEAN_MOTION_DOT":-1.55e-6,"MEAN_MOTION_DDOT":0},{"OBJECT_NAME":"ONEWEB-0311","OBJECT_ID":"2021-075Y","EPOCH":"2025-09-19T23:46:46.555968","MEAN_MOTION":13.17649578,"ECCENTRICITY":0.00020844,"INCLINATION":87.9055,"RA_OF_ASC_NODE":59.5945,"ARG_OF_PERICENTER":89.8188,"MEAN_ANOMALY":270.3182,"EPHEMERIS_TYPE":0,"CLASSIFICATION_TYPE":"U","NORAD_CAT_ID":49097,"ELEMENT_SET_NO":999,"REV_AT_EPOCH":19804,"BSTAR":-3.6486385e-5,"MEAN_MOTION_DOT":-1.0e-8,"MEAN_MOTION_DDOT":0},{"OBJECT_NAME":"ONEWEB-0312","OBJECT_ID":"2021-075Z","EPOCH":"2025-09-19T22:19:18.366816","MEAN_MOTION":13.17649427,"ECCENTRICITY":0.00020475,"INCLINATION":87.9048,"RA_OF_ASC_NODE":59.6378,"ARG_OF_PERICENTER":99.059,"MEAN_ANOMALY":261.0774,"EPHEMERIS_TYPE":0,"CLASSIFICATION_TYPE":"U","NORAD_CAT_ID":49098,"ELEMENT_SET_NO":999,"REV_AT_EPOCH":19801,"BSTAR":-1.1941872e-5,"MEAN_MOTION_DOT":8.0e-8,"MEAN_MOTION_DDOT":0},{"OBJECT_NAME":"ONEWEB-0313","OBJECT_ID":"2021-075AA","EPOCH":"2025-09-19T22:26:24.185760","MEAN_MOTION":13.17649887,"ECCENTRICITY":0.00018188,"INCLINATION":87.904,"RA_OF_ASC_NODE":59.6479,"ARG_OF_PERICENTER":93.7331,"MEAN_ANOMALY":266.4008,"EPHEMERIS_TYPE":0,"CLASSIFICATION_TYPE":"U","NORAD_CAT_ID":49099,"ELEMENT_SET_NO":999,"REV_AT_EPOCH":19800,"BSTAR":-6.408677e-5,"MEAN_MOTION_DOT":-1.2e-7,"MEAN_MOTION_DDOT":0},{"OBJECT_NAME":"ONEWEB-0314","OBJECT_ID":"2021-075AB","EPOCH":"2025-09-20T03:06:02.849760","MEAN_MOTION":13.17647949,"ECCENTRICITY":0.0002041,"INCLINATION":87.9062,"RA_OF_ASC_NODE":59.5493,"ARG_OF_PERICENTER":97.2417,"MEAN_ANOMALY":262.8947,"EPHEMERIS_TYPE":0,"CLASSIFICATION_TYPE":"U","NORAD_CAT_ID":49100,"ELEMENT_SET_NO":999,"REV_AT_EPOCH":19800,"BSTAR":0.00024868301,"MEAN_MOTION_DOT":1.09e-6,"MEAN_MOTION_DDOT":0}]
